{
    "links": {
        "self": "http://www.neowsapp.com/rest/v1/neo/3943318?api_key=iIulBulltgU6a56xZRHN4H3l9WmuAYTsLGpBGhQ2"
    },
    "id": "3943318",
    "neo_reference_id": "3943318",
    "name": "(2019 YR)",
    "designation": "2019 YR",
    "nasa_jpl_url": "http://ssd.jpl.nasa.gov/sbdb.cgi?sstr=3943318",
    "absolute_magnitude_h": 25.6,
    "estimated_diameter": {
        "kilometers": {
            "estimated_diameter_min": 0.0201629919,
            "estimated_diameter_max": 0.0450858206
        },
        "meters": {
            "estimated_diameter_min": 20.1629919443,
            "estimated_diameter_max": 45.0858206172
        },
        "miles": {
            "estimated_diameter_min": 0.0125286985,
            "estimated_diameter_max": 0.0280150214
        },
        "feet": {
            "estimated_diameter_min": 66.1515504905,
            "estimated_diameter_max": 147.9193637137
        }
    },
    "is_potentially_hazardous_asteroid": false,
    "close_approach_data": [
        {
            "close_approach_date": "2019-12-17",
            "close_approach_date_full": "2019-Dec-17 23:29",
            "epoch_date_close_approach": 1576625340000,
            "relative_velocity": {
                "kilometers_per_second": "10.972040348",
                "kilometers_per_hour": "39499.3452527006",
                "miles_per_hour": "24543.3570543795"
            },
            "miss_distance": {
                "astronomical": "0.0223500781",
                "lunar": "8.6941803809",
                "kilometers": "3343524.078093647",
                "miles": "2077569.5239484486"
            },
            "orbiting_body": "Earth"
        },
        {
            "close_approach_date": "2128-12-31",
            "close_approach_date_full": "2128-Dec-31 17:50",
            "epoch_date_close_approach": 5017571400000,
            "relative_velocity": {
                "kilometers_per_second": "15.536021088",
                "kilometers_per_hour": "55929.675916665",
                "miles_per_hour": "34752.5255716633"
            },
            "miss_distance": {
                "astronomical": "0.2478778878",
                "lunar": "96.4244983542",
                "kilometers": "37082004.034978986",
                "miles": "23041688.8500265668"
            },
            "orbiting_body": "Earth"
        }
    ],
    "orbital_data": {
        "orbit_id": "4",
        "orbit_determination_date": "2020-01-06 05:39:21",
        "first_observation_date": "2019-12-19",
        "last_observation_date": "2020-01-05",
        "data_arc_in_days": 17,
        "observations_used": 45,
        "orbit_uncertainty": "7",
        "minimum_orbit_intersection": ".00896942",
        "jupiter_tisserand_invariant": "2.955",
        "epoch_osculation": "2459000.5",
        "eccentricity": ".6588805874962597",
        "semi_major_axis": "2.805766633333296",
        "inclination": "5.041760251567439",
        "ascending_node_longitude": "86.07609807502449",
        "orbital_period": "1716.626237666717",
        "perihelion_distance": ".9571014655852512",
        "perihelion_argument": "331.7106159004005",
        "aphelion_distance": "4.65443180108134",
        "perihelion_time": "2458815.165048134383",
        "mean_anomaly": "38.86727419610591",
        "mean_motion": ".2097136768044052",
        "equinox": "J2000",
        "orbit_class": {
            "orbit_class_type": "APO",
            "orbit_class_description": "Near-Earth asteroid orbits which cross the Earth’s orbit similar to that of 1862 Apollo",
            "orbit_class_range": "a (semi-major axis) > 1.0 AU; q (perihelion) < 1.017 AU"
        }
    },
    "is_sentry_object": false
}